ONEWEB-0102             
1 47258U 20100A   25018.76260767 -.00000382  00000+0 -10974-2 0  9993
2 47258  87.8864  93.1155 0001957 104.2575 255.8771 13.12440610197250
ONEWEB-0109             
1 47259U 20100B   25019.15191099 -.00000313  00000+0 -90641-3 0  9993
2 47259  87.8866  93.0050 0001898 105.9370 254.1967 13.12443026197131
ONEWEB-0110             
1 47260U 20100C   25019.17787143  .00000365  00000+0  97909-3 0  9997
2 47260  87.8857  92.9931 0001842 107.2801 252.8529 13.12443282197304
ONEWEB-0111             
1 47261U 20100D   25018.75126017 -.00000204  00000+0 -60362-3 0  9995
2 47261  87.8864  93.0853 0001874 104.3507 255.7830 13.12439820197089
ONEWEB-0114             
1 47262U 20100E   25019.16327076 -.00000084  00000+0 -26882-3 0  9995
2 47262  87.8859  93.0091 0002206 102.2932 257.8443 13.12443646197092
ONEWEB-0117             
1 47263U 20100F   25019.15515251 -.00000288  00000+0 -83688-3 0  9992
2 47263  87.8865  92.9954 0001785 103.8389 256.2938 13.12443638197105
ONEWEB-0118             
1 47264U 20100G   25019.11138269  .00000502  00000+0  13610-2 0  9993
2 47264  87.8862  93.0067 0002084  95.4333 264.7034 13.12443928197291
ONEWEB-0119             
1 47265U 20100H   25018.75774508 -.00000378  00000+0 -10872-2 0  9995
2 47265  87.8865  93.1162 0001834 105.1380 254.9951 13.12439608197227
